[{"OBJECT_NAME":"STARLINK-1738","OBJECT_ID":"2020-062M","EPOCH":"2026-03-05T21:07:30.277920","MEAN_MOTION":16.03382967,"ECCENTRICITY":0.0004469,"INCLINATION":53.0264,"RA_OF_ASC_NODE":300.0606,"ARG_OF_PERICENTER":168.9625,"MEAN_ANOMALY":191.1504,"EPHEMERIS_TYPE":0,"CLASSIFICATION_TYPE":"U","NORAD_CAT_ID":46336,"ELEMENT_SET_NO":999,"REV_AT_EPOCH":30504,"BSTAR":0.0013547,"MEAN_MOTION_DOT":0.00861815,"MEAN_MOTION_DDOT":0.00038112},{"OBJECT_NAME":"STARLINK-1687","OBJECT_ID":"2020-070K","EPOCH":"2026-03-05T16:56:48.888960","MEAN_MOTION":16.36687155,"ECCENTRICITY":0.000289,"INCLINATION":53.0223,"RA_OF_ASC_NODE":110.6144,"ARG_OF_PERICENTER":337.9696,"MEAN_ANOMALY":22.1224,"EPHEMERIS_TYPE":0,"CLASSIFICATION_TYPE":"U","NORAD_CAT_ID":46541,"ELEMENT_SET_NO":999,"REV_AT_EPOCH":30007,"BSTAR":0.00091552,"MEAN_MOTION_DOT":0.08516221,"MEAN_MOTION_DDOT":1.2316e-5},{"OBJECT_NAME":"STARLINK-1712","OBJECT_ID":"2020-070BB","EPOCH":"2026-03-05T20:00:00.999360","MEAN_MOTION":15.97729963,"ECCENTRICITY":0.000651,"INCLINATION":53.0287,"RA_OF_ASC_NODE":100.2294,"ARG_OF_PERICENTER":350.8871,"MEAN_ANOMALY":232.3804,"EPHEMERIS_TYPE":0,"CLASSIFICATION_TYPE":"U","NORAD_CAT_ID":46581,"ELEMENT_SET_NO":999,"REV_AT_EPOCH":603,"BSTAR":0.0011625,"MEAN_MOTION_DOT":0.00534994,"MEAN_MOTION_DDOT":0.00013229},{"OBJECT_NAME":"STARLINK-1955","OBJECT_ID":"2021-009J","EPOCH":"2026-03-05T20:00:00.999360","MEAN_MOTION":15.94250141,"ECCENTRICITY":0.0003417,"INCLINATION":53.0356,"RA_OF_ASC_NODE":344.8653,"ARG_OF_PERICENTER":147.8808,"MEAN_ANOMALY":240.5784,"EPHEMERIS_TYPE":0,"CLASSIFICATION_TYPE":"U","NORAD_CAT_ID":47556,"ELEMENT_SET_NO":999,"REV_AT_EPOCH":604,"BSTAR":0.0011396,"MEAN_MOTION_DOT":0.00432759,"MEAN_MOTION_DDOT":8.5259e-5},{"OBJECT_NAME":"WILDTRACKCUBE-SIMBA","OBJECT_ID":"2021-022K","EPOCH":"2026-03-05T17:48:33.131232","MEAN_MOTION":16.30913111,"ECCENTRICITY":0.0004876,"INCLINATION":97.3756,"RA_OF_ASC_NODE":346.8405,"ARG_OF_PERICENTER":163.9164,"MEAN_ANOMALY":196.2286,"EPHEMERIS_TYPE":0,"CLASSIFICATION_TYPE":"U","NORAD_CAT_ID":47941,"ELEMENT_SET_NO":999,"REV_AT_EPOCH":27521,"BSTAR":0.0010545,"MEAN_MOTION_DOT":0.04989897,"MEAN_MOTION_DDOT":2.5292e-6},{"OBJECT_NAME":"JILIN-1 GAOFEN 3D02","OBJECT_ID":"2021-061C","EPOCH":"2026-03-05T21:18:59.645376","MEAN_MOTION":16.19737745,"ECCENTRICITY":0.0006183,"INCLINATION":97.2882,"RA_OF_ASC_NODE":145.6471,"ARG_OF_PERICENTER":258.6736,"MEAN_ANOMALY":101.3859,"EPHEMERIS_TYPE":0,"CLASSIFICATION_TYPE":"U","NORAD_CAT_ID":49005,"ELEMENT_SET_NO":999,"REV_AT_EPOCH":26020,"BSTAR":0.0010904,"MEAN_MOTION_DOT":0.02011252,"MEAN_MOTION_DDOT":2.3664e-6},{"OBJECT_NAME":"STARLINK-3269","OBJECT_ID":"2021-125AQ","EPOCH":"2026-03-05T16:08:36.437280","MEAN_MOTION":16.37862152,"ECCENTRICITY":0.0006903,"INCLINATION":53.1877,"RA_OF_ASC_NODE":150.6036,"ARG_OF_PERICENTER":320.1175,"MEAN_ANOMALY":39.9364,"EPHEMERIS_TYPE":0,"CLASSIFICATION_TYPE":"U","NORAD_CAT_ID":50194,"ELEMENT_SET_NO":999,"REV_AT_EPOCH":23768,"BSTAR":0.00095492,"MEAN_MOTION_DOT":0.10242903,"MEAN_MOTION_DDOT":1.2379e-5},{"OBJECT_NAME":"LYNK TOWER 1","OBJECT_ID":"2022-033F","EPOCH":"2026-03-05T05:06:32.125248","MEAN_MOTION":16.11609324,"ECCENTRICITY":0.0005538,"INCLINATION":97.2535,"RA_OF_ASC_NODE":169.5237,"ARG_OF_PERICENTER":205.3975,"MEAN_ANOMALY":154.7038,"EPHEMERIS_TYPE":0,"CLASSIFICATION_TYPE":"U","NORAD_CAT_ID":52162,"ELEMENT_SET_NO":999,"REV_AT_EPOCH":22052,"BSTAR":0.00076195,"MEAN_MOTION_DOT":0.00782842,"MEAN_MOTION_DDOT":0.00035169},{"OBJECT_NAME":"STARLINK-3767","OBJECT_ID":"2022-045AX","EPOCH":"2026-03-05T21:01:18.473664","MEAN_MOTION":16.03619844,"ECCENTRICITY":0.0001648,"INCLINATION":53.2113,"RA_OF_ASC_NODE":191.7196,"ARG_OF_PERICENTER":168.2895,"MEAN_ANOMALY":191.8177,"EPHEMERIS_TYPE":0,"CLASSIFICATION_TYPE":"U","NORAD_CAT_ID":52376,"ELEMENT_SET_NO":999,"REV_AT_EPOCH":21555,"BSTAR":0.0014682,"MEAN_MOTION_DOT":0.00945052,"MEAN_MOTION_DDOT":0.00046789},{"OBJECT_NAME":"NUSAT-28 (ALICE LEE)","OBJECT_ID":"2022-057R","EPOCH":"2026-03-05T21:27:34.051968","MEAN_MOTION":15.9823805,"ECCENTRICITY":0.0007541,"INCLINATION":97.5006,"RA_OF_ASC_NODE":214.375,"ARG_OF_PERICENTER":287.2162,"MEAN_ANOMALY":72.8289,"EPHEMERIS_TYPE":0,"CLASSIFICATION_TYPE":"U","NORAD_CAT_ID":52747,"ELEMENT_SET_NO":999,"REV_AT_EPOCH":21144,"BSTAR":0.0011792,"MEAN_MOTION_DOT":0.00541632,"MEAN_MOTION_DDOT":0.00012765},{"OBJECT_NAME":"STARLINK-6201","OBJECT_ID":"2023-064AQ","EPOCH":"2026-03-05T20:00:00.999360","MEAN_MOTION":15.99738727,"ECCENTRICITY":0.0004407,"INCLINATION":69.9945,"RA_OF_ASC_NODE":124.5144,"ARG_OF_PERICENTER":283.3055,"MEAN_ANOMALY":317.8123,"EPHEMERIS_TYPE":0,"CLASSIFICATION_TYPE":"U","NORAD_CAT_ID":56486,"ELEMENT_SET_NO":999,"REV_AT_EPOCH":580,"BSTAR":0.0023554,"MEAN_MOTION_DOT":0.01177338,"MEAN_MOTION_DDOT":0.00071618},{"OBJECT_NAME":"OBJECT H","OBJECT_ID":"2023-085H","EPOCH":"2026-03-05T20:39:56.270016","MEAN_MOTION":15.92425861,"ECCENTRICITY":0.0006456,"INCLINATION":97.4641,"RA_OF_ASC_NODE":191.1252,"ARG_OF_PERICENTER":293.1659,"MEAN_ANOMALY":66.8934,"EPHEMERIS_TYPE":0,"CLASSIFICATION_TYPE":"U","NORAD_CAT_ID":57011,"ELEMENT_SET_NO":999,"REV_AT_EPOCH":15196,"BSTAR":0.001555,"MEAN_MOTION_DOT":0.00522929,"MEAN_MOTION_DDOT":0.00010968},{"OBJECT_NAME":"SHIYAN-25 (SY-25)","OBJECT_ID":"2023-087A","EPOCH":"2026-03-05T20:12:10.929024","MEAN_MOTION":16.01051831,"ECCENTRICITY":0.0011744,"INCLINATION":96.7186,"RA_OF_ASC_NODE":125.9388,"ARG_OF_PERICENTER":251.2323,"MEAN_ANOMALY":108.7683,"EPHEMERIS_TYPE":0,"CLASSIFICATION_TYPE":"U","NORAD_CAT_ID":57047,"ELEMENT_SET_NO":999,"REV_AT_EPOCH":15827,"BSTAR":0.0009361,"MEAN_MOTION_DOT":0.00506321,"MEAN_MOTION_DDOT":0.00011508},{"OBJECT_NAME":"STARLINK-6151","OBJECT_ID":"2023-090T","EPOCH":"2026-03-05T17:14:57.052032","MEAN_MOTION":16.23472733,"ECCENTRICITY":0.0013739,"INCLINATION":42.967,"RA_OF_ASC_NODE":172.5167,"ARG_OF_PERICENTER":355.18,"MEAN_ANOMALY":4.8952,"EPHEMERIS_TYPE":0,"CLASSIFICATION_TYPE":"U","NORAD_CAT_ID":57118,"ELEMENT_SET_NO":999,"REV_AT_EPOCH":15124,"BSTAR":0.0009123,"MEAN_MOTION_DOT":0.02500157,"MEAN_MOTION_DDOT":8.9973e-6},{"OBJECT_NAME":"STARLINK-30210","OBJECT_ID":"2023-096C","EPOCH":"2026-03-05T16:59:32.140032","MEAN_MOTION":16.06706988,"ECCENTRICITY":0.0023148,"INCLINATION":42.962,"RA_OF_ASC_NODE":160.437,"ARG_OF_PERICENTER":14.684,"MEAN_ANOMALY":345.4708,"EPHEMERIS_TYPE":0,"CLASSIFICATION_TYPE":"U","NORAD_CAT_ID":57292,"ELEMENT_SET_NO":999,"REV_AT_EPOCH":14787,"BSTAR":0.0012131,"MEAN_MOTION_DOT":0.00996068,"MEAN_MOTION_DDOT":0.00054544},{"OBJECT_NAME":"STARLINK-30232","OBJECT_ID":"2023-096P","EPOCH":"2026-03-05T17:33:37.671264","MEAN_MOTION":16.07369669,"ECCENTRICITY":0.0022661,"INCLINATION":42.9696,"RA_OF_ASC_NODE":159.8648,"ARG_OF_PERICENTER":15.6808,"MEAN_ANOMALY":344.477,"EPHEMERIS_TYPE":0,"CLASSIFICATION_TYPE":"U","NORAD_CAT_ID":57303,"ELEMENT_SET_NO":999,"REV_AT_EPOCH":14786,"BSTAR":0.001288,"MEAN_MOTION_DOT":0.01099404,"MEAN_MOTION_DDOT":0.00069154}]
