STARLINK-1738           
1 46336U 20062M   26064.88021155  .00861815  38112-3  13547-2 0  9999
2 46336  53.0264 300.0606 0004469 168.9625 191.1504 16.03382967305047
STARLINK-1687           
1 46541U 20070K   26064.70612140  .08516221  12316-4  91552-3 0  9995
2 46541  53.0223 110.6144 0002890 337.9696  22.1224 16.36687155300077
STARLINK-1712           
1 46581U 20070BB  26064.83334490  .00534994  13229-3  11625-2 0  9996
2 46581  53.0287 100.2294 0006510 350.8871 232.3804 15.97729963  6032
STARLINK-1955           
1 47556U 21009J   26064.83334490  .00432759  85259-4  11396-2 0  9996
2 47556  53.0356 344.8653 0003417 147.8808 240.5784 15.94250141  6047
WILDTRACKCUBE-SIMBA     
1 47941U 21022K   26064.74205013  .04989897  25292-5  10545-2 0  9998
2 47941  97.3756 346.8405 0004876 163.9164 196.2286 16.30913111275216
JILIN-1 GAOFEN 3D02     
1 49005U 21061C   26064.88819034  .02011252  23664-5  10904-2 0  9992
2 49005  97.2882 145.6471 0006183 258.6736 101.3859 16.19737745260206
STARLINK-3269           
1 50194U 21125AQ  26064.67264395  .10242903  12379-4  95492-3 0  9999
2 50194  53.1877 150.6036 0006903 320.1175  39.9364 16.37862152237681
LYNK TOWER 1            
1 52162U 22033F   26064.21287182  .00782842  35169-3  76195-3 0  9994
2 52162  97.2535 169.5237 0005538 205.3975 154.7038 16.11609324220526
STARLINK-3767           
1 52376U 22045AX  26064.87590826  .00945052  46789-3  14682-2 0  9994
2 52376  53.2113 191.7196 0001648 168.2895 191.8177 16.03619844215556
NUSAT-28 (ALICE LEE)    
1 52747U 22057R   26064.89414412  .00541632  12765-3  11792-2 0  9999
2 52747  97.5006 214.3750 0007541 287.2162  72.8289 15.98238050211440
STARLINK-6201           
1 56486U 23064AQ  26064.83334490  .01177338  71618-3  23554-2 0  9993
2 56486  69.9945 124.5144 0004407 283.3055 317.8123 15.99738727  5801
OBJECT H                
1 57011U 23085H   26064.86106794  .00522929  10968-3  15550-2 0  9995
2 57011  97.4641 191.1252 0006456 293.1659  66.8934 15.92425861151965
SHIYAN-25 (SY-25)       
1 57047U 23087A   26064.84179316  .00506321  11508-3  93610-3 0  9997
2 57047  96.7186 125.9388 0011744 251.2323 108.7683 16.01051831158275
STARLINK-6151           
1 57118U 23090T   26064.71871588  .02500157  89973-5  91230-3 0  9998
2 57118  42.9670 172.5167 0013739 355.1800   4.8952 16.23472733151245
STARLINK-30210          
1 57292U 23096C   26064.70801088  .00996068  54544-3  12131-2 0  9998
2 57292  42.9620 160.4370 0023148  14.6840 345.4708 16.06706988147871
STARLINK-30232          
1 57303U 23096P   26064.73168601  .01099404  69154-3  12880-2 0  9994
2 57303  42.9696 159.8648 0022661  15.6808 344.4770 16.07369669147860
